addressLine1,city,state,zipCode,county,longitude,latitude
30631 W Celeborn Dr,Buckeye,AZ,85396,Maricopa,-112.710832,33.481631
1212 Horseman Pl,Bismarck,ND,58501,Burleigh,-100.746177,46.818761
11030 Creekbridge Pl,San Diego,CA,92128,San Diego,-117.092509,32.945955
1113 W High St,Haddon Heights,NJ,8035,Camden County,-75.067199,39.875404
441 Janice Kay Pl,Kissimmee,FL,34744,Osceola,-81.335555,28.287159
1145 Broadway,Somerville,MA,2144,Middlesex,-71.127231,42.403288
Tahitian Gardens Cir,Holiday,FL,34691,Pasco,-82.74283199999999,28.192739
12 Tamarack Cir,Eagleville,PA,19403,Montgomery County,-75.32344647,40.17990147
1249 15th St SW,Birmingham,AL,35211,Jefferson,-86.85019,33.483886
PO Box 693,Roscoe,PA,15477,Washington,-79.861806,40.079149
1701 Eutaw Pl,Baltimore,MD,21217,Baltimore City,-76.629907,39.307626
505 Green St,Rock Hill,SC,29730,York County,-81.03067,34.918175
704 W Taylor St,Griffin,GA,30223,Spalding,-84.273744,33.246956
98 Margery Dr,East Hartford,CT,6118,Hartford,-72.597643,41.756369
412 Pine Glen Ln,Greenacres,FL,33463,Palm Beach,-80.143135,26.606184
4506 Westminster,Benton,AR,72019,Saline,-92.533156,34.615533
441 Nw 106th St,Miami,FL,33150,Miami-Dade,-80.205606,25.87254
220 Pine Tree Trl,Crescent City,FL,32112,Putnam,-81.555147,29.488092
937 N Iowa St,Olathe,KS,66061,Johnson,-94.825332,38.894127
1181 Amber Pines Dr,Leland,NC,28451,Brunswick,-78.073596,34.266491
520 S Mill St,Lexington,KY,40508,Fayette,-84.504689,38.043848
1233 Ridge Ave,Steubenville,OH,43952,Jefferson,-80.624429,40.367883
PO Box 832134,Ocala,FL,34483,Marion,-82.0414,29.1316
910 Stratford Ave,Wichita Falls,TX,76306,Wichita,-98.507772,33.924402
7325 Wayfarer Trl,Fort Worth,TX,76137,Tarrant,-97.300492,32.872637
3041 Morsetowne Ct N,Columbus,OH,43224,Franklin,-82.935738,40.057272
98161 Golf Club Dr,Diamondhead,MS,39525,Hancock County,-89.35276,30.39855
414 S East St,Lebanon,OH,45036,Warren,-84.204812,39.426698
4567 Texas St,San Diego,CA,92116,San Diego,-117.138481,32.76034
201 Herndon St,Pittsburgh,PA,15220,Allegheny,-80.036833,40.44316
9345 W 82nd Ave,Arvada,CO,80005,Jefferson,-105.103741,39.846765
3710 Clubhouse Way,Gainesville,GA,30501,Hall,-83.750534,34.368054
11230 Palatine Ave N,Seattle,WA,98133,King,-122.356457,47.711534
105 Knight St,Angleton,TX,77515,Brazoria,-95.408813,29.182261
12232 Ridge Crown St,San Antonio,TX,78247,Bexar,-98.429334,29.555502
401 Martinique Ave,Dallas,TX,75223,Dallas,-96.750056,32.802571
45-415 Aumoku St,Kaneohe,HI,96744,Honolulu County,-157.796676,21.401941
5504 Midwinter Mist St,North Las Vegas,NV,89031,Clark,-115.147058,36.259899
3747 W Helena Dr,Glendale,AZ,85308,Maricopa,-112.140949,33.644261
20460 Campbellton Rd,San Antonio,TX,78264,Bexar,-98.43735,29.215602
2018 Hobbyhorse Ave,Henderson,NV,89012,Clark,-115.074379,36.015244
5334 Tilting Oaks Ct E,Jacksonville,FL,32258,Duval,-81.567578,30.140398
500 Victory Way,Pasadena,MD,21122,Anne Arundel,-76.541049,39.119987
1123 Patton Way,Mcdonough,GA,30252,Henry,-83.995807,33.446412
4100 N Hamlin Ave,Chicago,IL,60618,Cook,-87.723131,41.955742
5027 E Adams St,Tucson,AZ,85712,Pima,-110.885703,32.240985
9401 Clubhouse Dr,Foley,AL,36535,Baldwin,-87.641895,30.362044
1821 Hatherly Dr,Plano,TX,75023,Collin,-96.726308,33.055446
200 Throop Ave,Brooklyn,NY,11206,Kings,-73.943882,40.697831
11303 E Jackson Ave,Spokane Valley,WA,99206,Spokane,-117.254045,47.681814
601 S Federal Hwy,Fort Lauderdale,FL,33301,Broward,-80.137414,26.11466
1414 Fuselage Ave,Middle River,MD,21220,Baltimore,-76.445427,39.331696
395 W Tippets Ln,Duck Creek Village,UT,84762,Garfield,-112.65858,37.624455
746 Patriots Point St,Locust Grove,GA,30248,Henry,-84.118333,33.347507
1019 Katy Ln,Alexander,AR,72002,Saline,-92.419932,34.622208
968 Buckthorn Trl,Melbourne,FL,32940,Brevard County,-80.718272,28.218784
401 Vineyard Rd,Griffin,GA,30223,Spalding,-84.297055,33.295845
1703 S Broad St,Philadelphia,PA,19148,Philadelphia,-75.168478,39.9291
1308 Bear Creek Dr,Rocklin,CA,95765,Placer,-121.256169,38.83693
17131 72nd Ave N,Maple Grove,MN,55311,Hennepin,-93.497246,45.085331
1804 Hermitage Dr,Las Vegas,NV,89108,Clark,-115.228792,36.191686
1624 Woodruff Rd,Greenville,SC,29607,Greenville,-82.274726,34.819341
45 Scotland St,Ocean Isle Beach,NC,28469,Brunswick,-78.42895,33.894099
909 Jonathan Ct,Weatherford,TX,76086,Parker,-97.781987,32.737
1018 W Walker St,Denison,TX,75020,Grayson,-96.549876,33.761831
6060 Washington Ave,Berkeley,MO,63134,Saint Louis,-90.329533,38.747567
6775 Calusa Ave,Cocoa,FL,32927,Brevard,-80.800258,28.477696
190 Eagle Feather St,Mount Washington,KY,40047,Bullitt,-85.514668,38.055529
4 Fossa Ave Unit D,Nashua,NH,3060,Hillsborough County,-71.460545,42.748843
591 Briarwood Dr,Gladewater,TX,75647,Gregg,-94.93859,32.539147
720 3rd Ave,New Cumberland,WV,26047,Hancock,-80.602334,40.495545
2003 Costa Del Mar Rd,Carlsbad,CA,92009,San Diego,-117.267212,33.089798
4616 Matthews Mint Hill Rd,Matthews,NC,28105,Mecklenburg,-80.678646,35.151798
117 Old Maple Ct,Essex,MD,21221,Baltimore,-76.467408,39.331666
4013 Stratford Rd,Youngstown,OH,44512,Mahoning,-80.670208,41.059254
1030 N Earls Ct,Palatine,IL,60067,Cook,-88.083115,42.129344
237 Falcon Ln,Kempner,TX,76539,Lampasas,-97.948087,31.062812
3108 Rex Dr,York,PA,17402,York County,-76.661211,39.969891
1110 W 15th 1/2 St,Houston,TX,77008,Harris,-95.418604,29.798497
8911 S 67th St,Papillion,NE,68133,Sarpy,-96.015584,41.169902
3798 Glenford Dr,Clermont,FL,34711,Lake,-81.703893,28.510799
5944 King Lear Dr,Indianapolis,IN,46254,Marion,-86.265934,39.86626
132 Tara Trace Cir,Gun Barrel City,TX,75156,Henderson,-96.143084,32.320041
33713 Fairview Dr,Yucaipa,CA,92399,San Bernardino,-117.069051,34.022192
3106 Dove Cove Cir,Humble,TX,77396,Harris,-95.272084,29.957169
5835 Lori Ln,Indian River,MI,49749,Cheboygan County,-84.605977,45.42129
3257 State Hwy,Kilgore,TX,75662,Gregg,-94.848154,32.412593
3616 Barham Blvd,Los Angeles,CA,90068,Los Angeles,-118.341631,34.138865
17 Vista Chalet Dr,Ellijay,GA,30540,Gilmer County,-84.5237,34.654458
PO Box 2591,Hazard,KY,41702,Perry,-83.1954,37.2484
1006 9th St NW,Cedar Rapids,IA,52405,Linn,-91.68483,41.981962
322 S Mahon Ave,Tyler,TX,75702,Smith,-95.281886,32.347187
31495 Sierra Linda St,Yucaipa,CA,92399,San Bernardino,-117.117529,34.029739
3633 Highway Ave,Highland,IN,46322,Lake,-87.440627,41.555792
9 Delmont St,Manchester,CT,6042,Hartford,-72.522843,41.784502
1433 Crest View Cir,Morristown,TN,37814,Hamblen,-83.381775,36.205897
307 E Niles Ave,Fresno,CA,93720,Fresno,-119.778144,36.854641
797 Alcott Ave,Pomona,CA,91766,Los Angeles,-117.740856,34.043114
1579 Woodside Dr,Fircrest,WA,98466,Pierce,-122.521411,47.217737
1302 Nw Lawton Ave,Lawton,OK,73507,Comanche,-98.408356,34.624286
1121 Kinnett Rd,Covington,GA,30016,Rockdale,-84.008877,33.55919
2461 Manzana Way,San Diego,CA,92139,San Diego,-117.025876,32.694569
2502 W 18th St,Houston,TX,77008,Harris,-95.444033,29.801503
13522 Hyperion Hills Ln,Charlotte,NC,28278,Mecklenburg,-81.015533,35.070659
5601 Smetana Dr,Minnetonka,MN,55343,Hennepin County,-93.402894,44.9016
7417 67th St NE,Marysville,WA,98270,Snohomish,-122.129811,48.056134
634 Willow Ave,La Puente,CA,91746,Los Angeles,-117.976527,34.048259
1229 Kayton Ave,San Antonio,TX,78210,Bexar,-98.449133,29.397408
2510 N Mcvay Dr,Mobile,AL,36605,Mobile,-88.102258,30.645409
229 Avenida Majorca Unit A,Laguna Woods,CA,92637,Orange County,-117.708775,33.602721
241 W Ivy St,New Haven,CT,6511,New Haven,-72.936185,41.330867
118 S Harrisburg Ave Apt A,Gas City,IN,46933,Grant,-85.619134,40.487261
1606 Saddlecreek Rd,Auburn,GA,30011,Barrow County,-83.85296,34.040044
95 Archambault Ave,West Warwick,RI,2893,Kent,-71.526155,41.703865
1103 Navajo Cir,Carrollton,TX,75007,Denton,-96.917014,33.010169
1311 E Pierce St,Wakefield,MI,49968,Gogebic,-89.928983,46.473868
2212 State Hwy,Port Aransas,TX,78373,Nueces,-97.076825,27.816353
2702 E,Torrington,WY,82240,Goshen County,-104.178095,42.071274
255 W Fallen Leaf Cir,Wasilla,AK,99654,Matanuska-Susitna,-149.453913,61.570299
2545 Champa St,Denver,CO,80205,Denver,-104.982454,39.755766
784 Gold Finch Way,Lake Charles,LA,70611,Calcasieu Parish,-93.17943,30.31267
6340 Lanning Ln,Las Vegas,NV,89108,Clark,-115.232829,36.193494
3405 Greenview Dr,Garland,TX,75044,Dallas,-96.681309,32.942607
1897 E 51st St,Brooklyn,NY,11234,Kings,-73.925032,40.613863
6887 W Ridgeline Rd,Peoria,AZ,85383,Maricopa,-112.206244,33.748699
3930 Calgary Ave,San Diego,CA,92122,San Diego,-117.204713,32.858503999999996
1802 Fernwood Rd,Lake Como,NJ,7719,Monmouth County,-74.026675,40.170742
177 Rosewood Dr,Tajique,NM,87016,Torrance County,-106.269494,34.751831
807 Greensport Rd,Ashville,AL,35953,Saint Clair,-86.246977,33.823393
1002 E 25th Street Rd,Greeley,CO,80631,Weld,-104.664311,40.396368
13437 Corapeake Ter,Chesterfield,VA,23838,Chesterfield,-77.640193,37.274409
3015 Woodbine St,Jackson,MS,39212,Hinds,-90.229326,32.262662
1416 Carly Ct,San Diego,CA,92114,San Diego,-117.047126,32.695396
425 Billings St,Elgin,IL,60123,Kane,-88.284882,42.025457
7 Sellner Pl,Palm Coast,FL,32164,Flagler,-81.169836,29.422343
4842 S Indiana Ave,Chicago,IL,60615,Cook,-87.621244,41.806169
25 Tony St,Drummonds,TN,38023,Tipton,-89.892705,35.404159
1499 Multnoma Ave,Akron,OH,44305,Summit,-81.464849,41.081158
2400 Lake Ave,Pueblo,CO,81004,Pueblo,-104.624794,38.226565
11303 Rossum Creek Dr,Humble,TX,77396,Harris,-95.218369,29.942447
1005 44th St,Kenosha,WI,53140,Kenosha,-87.82461,42.595909
207 Harvest Blossom Rd,Millersville,MD,21108,Anne Arundel,-76.608414,39.121329
12405 Kingston Way,Dubuque,IA,52001,Dubuque County,-90.729263,42.532435
720 Woodcrest Ave,Brea,CA,92821,Orange,-117.906752,33.944338
3050 Rue Dorleans,San Diego,CA,92110,San Diego,-117.227227,32.753405
6 Brennan Park,Amarillo,TX,79121,Randall,-101.923048,35.174568
2469 E 99th Way,Thornton,CO,80229,Adams,-104.957449,39.87747
310 E Monmouth St,Winston Salem,NC,27127,Forsyth,-80.233613,36.070232
208 N Swarthmore Ave,Ventnor,NJ,8406,Atlantic County,-74.494184,39.336753
74240 Mercury Cir W,Palm Desert,CA,92260,Riverside,-116.369782,33.741365
2672 Towamencin Ave,Hatfield,PA,19440,Montgomery,-75.309494,40.277267
5116 Remington Ct NW,Lilburn,GA,30047,Gwinnett,-84.147431,33.885163
2155 Black Oak Ln,Ellenwood,GA,30294,Dekalb,-84.298849,33.648684
4331 Ver S Shmkr Blvd,Fort Myers,FL,33916,Lee,-81.836481,26.638257
45-705 Kamehameha Hwy,Kaneohe,HI,96744,Honolulu,-157.799232,21.406563
1836 Aspen Ln,Weston,FL,33327,Broward,-80.424334,26.128067
7135 Collins Ave,Miami Beach,FL,33141,Miami-Dade,-80.119942,25.856663
5146 Pontiac Trl,Ann Arbor,MI,48105,Washtenaw,-83.698015,42.347036
4030 Hicone Rd,Greensboro,NC,27405,Guilford,-79.734991,36.150196
14007 Long Meadow Dr,Houston,TX,77047,Harris,-95.364448,29.606019
13212 Hawthorn Ln,Woodbridge,VA,22193,Prince William County,-77.33404,38.66487
317 Nelson Ave,Summersville,WV,26651,Nicholas,-80.832376,38.279164
8081 E Corte Del Joven,Tucson,AZ,85750,Pima,-110.819728,32.275799
34950 Hidden Pine Dr,Fraser,MI,48026,Macomb,-82.96568,42.552564
70 S Munn Ave,East Orange,NJ,7018,Essex,-74.212485,40.755128
302 Mapmaker Ln,Savannah,GA,31410,Chatham,-81.00539,32.040255
314 W Magnolia Ave,San Antonio,TX,78212,Bexar,-98.498058,29.454539
802 Carrousel Ln,Kissimmee,FL,34759,Osceola,-81.452863,28.121461
1407 S Jamestown Ave,Tulsa,OK,74112,Tulsa,-95.937807,36.142089
5590 Chemin De Vie,Atlanta,GA,30342,Fulton,-84.384025,33.893856
101 S Fairview Rd,Columbia,MO,65203,Boone,-92.38116,38.953308
2025 Norcross Dr,Mesquite,TX,75149,Dallas,-96.628805,32.756898
2200 Victory Ave,Dallas,TX,75219,Dallas,-96.809326,32.784904
7 Hawthorne St,Sumter,SC,29150,Sumter,-80.364888,33.91711
400 E Randolph St,Chicago,IL,60601,Cook,-87.616151,41.883731
19038 Coton Farm Ct,Leesburg,VA,20176,Loudoun,-77.482294,39.088739
115 Queen Catherina Ct,Hutchinson Island,FL,34949,St. Lucie,-80.316875,27.513684
4855 E Lane Ave,Fresno,CA,93727,Fresno,-119.73309,36.732812
10280 Spring Hill Dr,Spring Hill,FL,34608,Hernando,-82.55113,28.458603
13508 Milan Ave,Cleveland,OH,44112,Cuyahoga,-81.588544,41.536871
712 Thoroughbred Dr SW,Albuquerque,NM,87121,Bernalillo,-106.752381,35.062232
1400 Bluff Ave,Fort Smith,AR,72901,Sebastian County,-94.414264,35.370012
3388 Portside Ln,Snellville,GA,30039,Gwinnett,-84.034316,33.811018
PO Box 402,Tullahoma,TN,37388,Coffee,-86.238538,35.344413
11 Old Mill Rd,Maynard,MA,1754,Middlesex,-71.440231,42.42529
421 W 38th St,Tucson,AZ,85713,Pima,-110.97512,32.19019
22501 E Radcliff Dr,Aurora,CO,80015,Arapahoe,-104.731378,39.635776
313 Roy Ct W,Keller,TX,76248,Tarrant,-97.246655,32.919091
2574 Lake Logan Rd,Canton,NC,28716,Haywood,-82.917977,35.442404
1340 Waylon Ave,Gastonia,NC,28054,Gaston,-81.121744,35.283143
24369 Atwood Ave,Moreno Valley,CA,92553,Riverside,-117.237512,33.929701
14835 E Grand St,Choctaw,OK,73020,Oklahoma County,-97.267908,35.496009
205 E 11th St,Colorado City,TX,79512,Mitchell,-100.864734,32.397631
6301 Camp Robinson Rd,North Little Rock,AR,72118,Pulaski,-92.270263,34.813392
204 Took Dr,Antioch,TN,37013,Davidson,-86.649131,36.059896
440 Paseo Flamenco,Rio Rico,AZ,85648,Santa Cruz,-111.010829,31.488035
3545 E Amelia Ave,Phoenix,AZ,85018,Maricopa,-112.004452,33.494139
1749 Virginia Ave,Kingsport,TN,37664,Sullivan,-82.510182,36.535584
3743 Harvette Dr,Chesterfield,VA,23237,Chesterfield,-77.461512,37.425289
363 Gastin St SW,Palm Bay,FL,32908,Brevard,-80.678601,27.948096
7889 Calle Oliva,Carlsbad,CA,92009,San Diego,-117.252793,33.078196
13268 Biscayne Blvd,North Miami,FL,33181,Miami-Dade,-80.161235,25.89793
4403 Cranbrook Dr,Indianapolis,IN,46250,Marion,-86.09366,39.884688
6810 Dina Leigh Ct,Springfield,VA,22153,Fairfax,-77.26119,38.768664
3912 Nw 58th St,Oklahoma City,OK,73112,Oklahoma,-97.588085,35.529343
715 Benwick Dr,Brandon,MS,39047,Rankin,-90.007272,32.336292
465 Brickell Ave,Miami,FL,33131,Miami-Dade,-80.188605,25.769084
3 Winding Way,Saddle River,NJ,7458,Bergen,-74.079412,41.074509
5820 Campbell Creek Dr,Oklahoma City,OK,73179,Oklahoma,-97.66965,35.407621
116 Devonshire Dr,Swedesboro,NJ,8085,Gloucester County,-75.357615,39.744168
411 Coastal Bluff Way,Summerville,SC,29486,Berkeley,-80.096945,33.118866
700 Iron Bridge Rd,Cicero,IN,46034,Hamilton,-86.017348,40.138537
51 Amity Rd,Biglerville,PA,17307,Adams,-77.377202,39.963067
16361 Saratoga Ln,Huntington Beach,CA,92649,Orange,-118.038846,33.724258
11796 Longshore Way W,Naples,FL,34119,Collier,-81.729228,26.286869
1286 Old North Main St,Laconia,NH,3246,Belknap,-71.481104,43.54795
3813 Lomi Lomi Dr,Holiday,FL,34691,Pasco,-82.750984,28.190413
1600 N Oak St,Arlington,VA,22209,Arlington County,-77.073392,38.892775
335 Oak Leaf Cir,Hoover,AL,35244,Jefferson,-86.884128,33.332295
98 Carl Sandburg Dr,Hamilton,NJ,8690,Mercer County,-74.653832,40.216125
4339 Lacebark Ln,Naperville,IL,60564,Will County,-88.232852,41.682767
22100 Burbank Blvd,Woodland Hills,CA,91367,Los Angeles,-118.608605,34.171432
3602 Jefferson St,Clearlake,CA,95422,Lake,-122.626377,38.960138
119 Allatoona Dr,Woodstock,GA,30189,Cherokee,-84.597627,34.162538
17440 N Tatum Blvd,Phoenix,AZ,85032,Maricopa,-111.978581,33.645363
1163 Winding Rose Way,West Palm Beach,FL,33415,Palm Beach,-80.129012,26.66067
844 Reece Ave,Nyssa,OR,97913,Malheur County,-117.004093,43.873532
1221 91st St,San Antonio,TX,78214,Bexar,-98.478178,29.346807
105 W 9th St,Mesa,AZ,85201,Maricopa,-111.833705,33.430901
245 County St,Milan,MI,48160,Washtenaw,-83.678677,42.0842
4201 Chestnut St,Fort Worth,TX,76137,Tarrant,-97.294879,32.862803
5701 Cedar Grove Rd,East New Market,MD,21631,Dorchester County,-75.993259,38.579264
8 Clary St,Cambridge,MA,2139,Middlesex,-71.098183,42.373863
54 Grove St,Cairo,NY,12413,Greene County,-73.997426,42.30215
431 Cascade Unit Surfrider A Loop,Little River,SC,29566,Horry County,-78.653917,33.872739
1018 Granada Ave,Nashville,TN,37206,Davidson County,-86.749167,36.188365
1204 Ruby St,Penitas,TX,78576,Hidalgo,-98.446036,26.263303
6697 Bunchberry Dr,Portage,MI,49024,Kalamazoo,-85.630954,42.219942
247 Park Ct,Bellwood,IL,60104,Cook,-87.881756,41.887427
775 Pershing Ave,Glen Ellyn,IL,60137,DuPage,-88.05423,41.857231
2320 Rosewood St,Jenison,MI,49428,Ottawa,-85.839488,42.895939
16101 S Post Oak Rd,Houston,TX,77053,Fort Bend,-95.468747,29.591764
251 Oak Trl,Sedona,AZ,86336,Yavapai,-111.72748,34.914115
713 Lowveld Dr,Murphy,TX,75094,Collin County,-96.595364,33.032007
74290 Covered Wagon Trl,Palm Desert,CA,92260,Riverside,-116.36858,33.713326
3921 San Lorenzo Ct,Oceanside,CA,92057,San Diego,-117.321183,33.220593
4811 Sierra Madre Dr,Tampa,FL,33634,Hillsborough,-82.550647,27.990727
1330 West Ave,Miami Beach,FL,33139,Miami-Dade County,-80.143232,25.784725
16408 Sw 95th St,Miami,FL,33196,Miami-Dade,-80.46138,25.677593
20 Lango Ln,Agawam,MA,1001,Hampden,-72.636954,42.083072
9723 Downey Ave,Downey,CA,90240,Los Angeles,-118.123379,33.955262
216 Evans Ave,Elmont,NY,11003,Nassau,-73.688977,40.702182
10000 Banburry Cross Dr,Las Vegas,NV,89144,Clark,-115.314055,36.181562
7708 Hanover Pkwy,Greenbelt,MD,20770,Prince Georges,-76.871556,38.996198
3445 Montebello Pkwy,Cumming,GA,30028,Forsyth,-84.193291,34.254628
20 Pawtucket Row,Orchard Park,NY,14127,Erie,-78.703036,42.746414
85 Woodsedge Dr,Newington,CT,6111,Hartford,-72.710792,41.675138
4693 Lyndenhall Dr,Columbus,OH,43207,Franklin,-82.990734,39.865637
22335 N 77th Pl,Scottsdale,AZ,85255,Maricopa,-111.913283,33.68893
10 Weyanoke St,Dorchester Center,MA,2124,Suffolk,-71.060849,42.282428
402 W Prospect St,Fayetteville,AR,72701,Washington,-94.164474,36.074028
1629 Claywood Ct,Lexington,KY,40515,Fayette,-84.46861,37.97101
325 Longboat Ave,Beachwood,NJ,8722,Ocean County,-74.188549,39.933144
3017 8th Ave N,Texas City,TX,77590,Galveston,-94.939804,29.392316
406 Oakhaven Dr,Smyrna,TN,37167,Rutherford,-86.486933,35.986696
24816 W Ravine Crest Dr,Lake Villa,IL,60046,Lake,-88.117335,42.436037
653 Thornwood Dr,Southaven,MS,38671,Desoto,-89.978505,34.985742
689 W 5th St,Winston Salem,NC,27101,Forsyth,-80.252929,36.09896
7720 Ave L,Houston,TX,77012,Harris,-95.284458,29.738366
18904 Dog Bar Rd,Grass Valley,CA,95949,Nevada County,-121.005134,39.110928
505 Evelyn Ct,Keller,TX,76248,Tarrant,-97.242634,32.908644
11322 Cottonwood Hills Rd,Cashion,OK,73016,Logan,-97.650426,35.762313
PO Box 360,East Mc Keesport,PA,15035,Allegheny,-79.807939,40.384373
2528 E 97th Pl,Chicago,IL,60617,Cook,-87.562614,41.718437
4314 Gadwall Pl,Virginia Beach,VA,23462,Virginia Beach City,-76.122405,36.815665
10520 Tireman St,Detroit,MI,48204,Wayne,-83.164326,42.351867
15580 Nw Linder St,Portland,OR,97229,Washington,-122.837623,45.568441
8434 San Carlos Blvd,Fort Myers,FL,33967,Lee,-81.80725,26.470135
11642 Tropical Isle Ln,Riverview,FL,33579,Hillsborough,-82.297814,27.791263999999998
824 Belvedere Blvd,Charlottesville,VA,22901,Albemarle,-78.457511,38.073489
15076 Cedar Springs Dr,Biloxi,MS,39532,Harrison County,-88.976431,30.505227
6919 Altair Chase,San Antonio,TX,78252,Bexar,-98.631954,29.349008
101 Lewis St,Harrisburg,PA,17110,Dauphin,-76.903483,40.298302
905 Mcconnell Ave,Eden,NC,27288,Rockingham,-79.770609,36.483945
2912 Quail Run Dr,Mesquite,TX,75149,Dallas,-96.644335,32.766263
4398 Us Hwy,Four Oaks,NC,27524,Johnston,-78.390111,35.459107
73 Coles Pond Rd,Somersworth,NH,3878,Strafford County,-70.897342,43.271191
1 Newcomb St,Boston,MA,2118,Suffolk County,-71.078815,42.334384
1216 Old Fairhaven Pkwy,Bellingham,WA,98225,Whatcom County,-122.501176,48.717007
8370 E Via,Scottsdale,AZ,85258,Maricopa,-111.900756,33.554739
2511 Dolly Bay Dr,Palm Harbor,FL,34684,Pinellas,-82.737829,28.110577
106 Knight Ln,Lancaster,PA,17602,Lancaster,-76.241409,40.016226
1808 N Vermont Ave,Royal Oak,MI,48073,Oakland County,-83.12909,42.504836
8194 Sawgrass Way,Radford,VA,24141,Pulaski,-80.540563,37.153162
50 Columbus Dr,Jersey City,NJ,7302,Hudson,-74.038828,40.718285
14223 Saltby Pl,Spring Hill,FL,34609,Hernando,-82.490132,28.441966
1107 9th St NE,Milaca,MN,56353,Mille Lacs County,-93.635115,45.76344
2097 Belhaven Ave,Simi Valley,CA,93063,Ventura,-118.661687,34.273898
720 Gormley Dr,Rockville,MD,20850,Montgomery,-77.181581,39.081334
904 Bedford St,Austin,TX,78702,Travis,-97.707733,30.271303
7946 Golfhill Dr,Port Arthur,TX,77642,Jefferson,-93.981246,29.944325
6154 Southbend Dr S,Mobile,AL,36619,Mobile,-88.185226,30.584284
123 Sylvia Ct,Vallejo,CA,94591,Solano,-122.219775,38.113262
5413 Village,Roanoke,VA,24018,Roanoke,-79.981095,37.21949
176 E Kerley Corners Rd,Red Hook,NY,12571,Dutchess,-73.832718,42.042433
2427 Parkhighland Ct,Charlotte,NC,28273,Mecklenburg,-80.958326,35.139791
14747 Sw 175th St,Miami,FL,33187,Miami-Dade,-80.430895,25.604567
1717 N Bayshore Dr,Miami,FL,33132,Miami-Dade County,-80.186175,25.791536999999998
20 Maple Ave,Cambridge,MA,2139,Middlesex County,-71.104491,42.372208
103 Hilltop Dr,Cochranville,PA,19330,Chester,-75.91821,39.88937
2614 Blackthorne Pl,Columbus,OH,43224,Franklin,-82.947313,40.056332
129 Midwell Rd,Wethersfield,CT,6109,Hartford,-72.679848,41.697473
5560 Chickering Ct,Bartlesville,OK,74006,Washington,-95.91521,36.761893
3633 Clearview Dr,Corinth,TX,76210,Denton,-97.051511,33.13284
306 50th Ave,Bellwood,IL,60104,Cook County,-87.894723,41.886421
11930 Sugar Hill Dr,Midlothian,VA,23112,Chesterfield,-77.613755,37.395461
438 Cuyahoga St,Kent,OH,44240,Portage,-81.360944,41.159766
1175 Canyon Rd,Ogden,UT,84404,Weber,-111.948875,41.241789
1513 Riverside Dr,Beaufort,SC,29902,Beaufort,-80.702655,32.3908
PO Box 1810,Tampa,FL,33601,Hillsborough,-82.4579,27.9498
7390 17 Mile Rd NE,Cedar Springs,MI,49319,Kent County,-85.486385,43.219922
7703 Snowbasin,Converse,TX,78109,Bexar,-98.338187,29.467125
7801 E Mckinley St,Scottsdale,AZ,85257,Maricopa,-111.911261,33.455109
825 N Walnut St,Dover,OH,44622,Tuscarawas,-81.483907,40.526575
466 W Eagle Lake Dr,Maple Grove,MN,55369,Hennepin,-93.42241,45.079408
1489 Nw 40th St,Miami,FL,33142,Miami-Dade,-80.221645,25.812896
2727 Northridge Cir,Purcell,OK,73080,McClain,-97.372968,35.046383
176 E Foster St,Melrose,MA,2176,Middlesex County,-71.05771,42.455745
14000 Noel Rd,Dallas,TX,75240,Dallas,-96.815881,32.938697
30 N Mountain Rd,New Britain,CT,6053,Hartford,-72.819453,41.669423
2903 Nashville,Amarillo,TX,79118,Randall,-101.869078,35.131682
10440 Armstrong St,Fairfax,VA,22030,Fairfax City,-77.305277,38.841386
211 Alnwick Ln,Waxhaw,NC,28173,Union,-80.803205,35.023064
56 Hill Top Rd,Huntsville,TX,77320,Walker,-95.380697,30.844317
1809 Winding Way Dr,White House,TN,37188,Sumner,-86.659707,36.418664
1190 Portland Dr,Harrisonburg,VA,22801,Harrisonburg City,-78.863356,38.413837
4310 Lower Honoapiilani Rd,Lahaina,HI,96761,Maui,-156.678068,20.970768
105 E Linden St,Rome,NY,13440,Oneida,-75.447738,43.222558
1101 Saint Croix St N,Hudson,WI,54016,St. Croix County,-92.74803,44.992722
1779 Summer Cloud Dr,Thousand Oaks,CA,91362,Ventura,-118.845647,34.220438
6026 Birdie Dr,La Verne,CA,91750,Los Angeles,-117.769387,34.135414
1621 Award Dr,Manchester,MO,63021,Saint Louis,-90.48021,38.574942
1700 Wyatt Dr,Santa Clara,CA,95054,Santa Clara,-121.957381,37.388669
2334 Candle Ridge Trl,Georgetown,TX,78626,Williamson,-97.653007,30.634956
PO Box 38,Edinburg,IL,62531,Christian,-89.383845,39.662474
128 Booth Cir,Ocean Springs,MS,39564,Jackson,-88.766134,30.404803
3504 Se Franklin St,Portland,OR,97202,Multnomah County,-122.62835,45.49875
404 Jackson St,Belden,NE,68717,Cedar County,-97.208233,42.410532
1024 Coach Cir,Virginia Beach,VA,23462,Virginia Beach City,-76.166411,36.867943
5024 Radcliffe Rd,Columbia,SC,29206,Richland,-80.977109,34.014234
8783 109th St,Richmond Hill,NY,11418,Queens,-73.837428,40.693749
2605 Bel Air Ln,Flower Mound,TX,75022,Denton,-97.069608,32.990024
3012 N 13th St,Tacoma,WA,98406,Pierce,-122.475558,47.261501
12046 Se Main St,Portland,OR,97216,Multnomah,-122.538587,45.514266
4442 S Benton Ave,Kansas City,MO,64130,Jackson,-94.551013,39.044897
13538 Sw 64th Ter,Miami,FL,33183,Miami-Dade,-80.412827,25.707335
4037 Monarch Dr,Mcdonough,GA,30253,Henry,-84.149657,33.462234
6320 Tuckaway Cove Ave,Las Vegas,NV,89139,Clark,-115.230308,36.045439
3150 Plaza Terrace Dr,Orlando,FL,32803,Orange,-81.345342,28.561544
225 Camellia Dr,Prattville,AL,36067,Autauga,-86.458206,32.47446
83 Trinity Cir,Livermore,CA,94551,Alameda,-121.803279,37.688346
1739 Emerald Lake Ct,Houston,TX,77062,Harris,-95.147007,29.587198
480 Kimball St,Manchester,NH,3102,Hillsborough,-71.493714,42.999168
7 Harkin Ln,Hicksville,NY,11801,Nassau,-73.521293,40.753103
5225 Forestville Rd,Raleigh,NC,27604,Wake,-78.513865,35.840435
3071 Old New Cut Rd,Springfield,TN,37172,Robertson County,-86.87249,36.465172
118 Everette Ln,Smithfield,NC,27577,Johnston,-78.340382,35.529834
23 Concord Pl,Clementon,NJ,8021,Camden,-75.036277,39.823281
5929 Se 88th St,Oklahoma City,OK,73135,Oklahoma,-97.41888,35.378097
8449 Thompson Ct NW,Bemidji,MN,56601,Beltrami,-94.885711,47.550714
2295 Wilshire Dr,Grayson,GA,30017,Gwinnett,-83.970092,33.877263
1801 Barron Ln,Fort Worth,TX,76112,Tarrant,-97.20708,32.753203
1327 Wellesley Ave,Steubenville,OH,43952,Jefferson,-80.624455,40.371324
905 Grooms Rd Dr,Clifton Park,NY,12148,Saratoga County,-73.85718,42.83881
418 Boxelder Dr,Stafford,VA,22554,Stafford,-77.434588,38.445569
2280 Valley Ave,Winchester,VA,22601,Winchester City,-78.184273,39.159844
211 N Citrus Ave,Inverness,FL,34450,Citrus,-82.335725,28.839334
1304 W 3rd St,Vinton,IA,52349,Benton,-92.039252,42.168499
4701 San Leandro St,Oakland,CA,94601,Alameda,-122.213887,37.7678
7905 W Thunderbird Rd,Peoria,AZ,85381,Maricopa,-112.229526,33.609271
101 Johnston St,Savannah,GA,31405,Chatham,-81.110074,32.021833
1620 N 26th Ave,Hollywood,FL,33020,Broward,-80.159333,26.025696
14564 Woodgate Manor Cir,Centreville,VA,20120,Fairfax City,-77.449641,38.841559
618 Wainsford Dr,Hoffman Estates,IL,60169,Cook,-88.111105,42.038339
6387 Shea Tree Cir,Mechanicsville,VA,23111,Hanover,-77.328229,37.626366
102 Colony Dr,North Myrtle Beach,SC,29582,Horry,-78.664632,33.834341
21 Crescent Pl,Sheridan,WY,82801,Sheridan,-106.974686,44.796699
110 E 60th St,New York City,NY,10022,New York County,-73.968771,40.763182
5707 Se 48th St,Oklahoma City,OK,73135,Oklahoma,-97.421059,35.416607
1031 Nottinghill Ct,Indianapolis,IN,46234,Hendricks,-86.30973,39.769492
1435 Mckinley Ave,San Antonio,TX,78210,Bexar,-98.461882,29.392892
254 Hagan Pl,Secaucus,NJ,7094,Hudson County,-74.059525,40.798901
160018 Arch St,Philadelphia,PA,19103,Philadelphia County,-75.16699219,39.9545784
311 Los Altos Way,Altamonte Springs,FL,32714,Seminole County,-81.39983,28.667196
803 Jefferson St,Eufaula,AL,36027,Barbour,-85.157399,31.886714
903 Peachtree St NE,Atlanta,GA,30309,Fulton,-84.383835,33.779205
37178 Dondero Way,Fremont,CA,94536,Alameda,-122.017728,37.548298
422 Shuart Ave,Syracuse,NY,13203,Onondaga,-76.123084,43.062587
5208 Dartmoor Ridge Trl,Houston,TX,77066,Harris,-95.496773,29.941081
401 Leighann Rd,Henderson,NV,89015,Clark,-114.999055,36.02689
1138 S Truro Ave,Inglewood,CA,90301,Los Angeles,-118.357728,33.947655
1217 Sussex St,Boynton Beach,FL,33436,Palm Beach,-80.104485,26.563063
300 Pitney Rd,Absecon,NJ,8201,Atlantic,-74.499459,39.429333
947 N 35th St,Milwaukee,WI,53208,Milwaukee,-87.958232,43.042759
3702 Bentley Pl,Waxhaw,NC,28173,Union,-80.756587,34.940161
4586 Trilogy Park Trl,Hoschton,GA,30548,Gwinnett,-83.852888,34.079676
1044 Camino Ln,Austin,TX,78752,Travis,-97.699434,30.324771
1835 S Sherman St,Denver,CO,80210,Denver,-104.985508,39.683271
10206 Paganica Pl,Hutchinson,KS,67502,Reno,-97.945405,38.166394
7034 2nd St N,Saint Petersburg,FL,33702,Pinellas,-82.636783,27.836462
7267 Winchester Rd,Memphis,TN,38125,Shelby,-89.821455,35.048564
2417 Elaine St,Lake Charles,LA,70601,Calcasieu,-93.182975,30.230556
321 W 1st St,Eloy,AZ,85131,Pinal,-111.560892,32.749238
1775 N Mountain View Ct,Washington,UT,84780,Washington,-113.529723,37.154714
971 Rye Dr,La Plata,MD,20646,Charles,-76.950064,38.541579
188 Perkins Ave,Waterbury,CT,6704,New Haven,-73.034693,41.583865
1372 Slate Ct,Cleveland,OH,44118,Cuyahoga,-81.554107,41.522501
4730 59th St,Woodside,NY,11377,Queens,-73.907084,40.739539
637 Main St,Woodland,PA,16881,Clearfield,-78.353444,40.99667
18384 Nw County Rd,Frost,TX,76641,Navarro,-96.752217,31.991046
50 Stroud Dr SE,Mableton,GA,30126,Cobb,-84.55641,33.793564
19 Bronsdon St,Brighton,MA,2135,Suffolk,-71.143581,42.359977
510 Bankhead Hwy,Carrollton,GA,30117,Carroll,-85.059758,33.587112
1019 Copeland St,Jacksonville,FL,32204,Duval,-81.685194,30.314442
701 Winter Ct,Nashville,TN,37211,Davidson,-86.724074,36.019336
615 Penhurst Pl,Hendersonville,TN,37075,Sumner,-86.592409,36.359852
3625 Kevin Ryan Dr,Baton Rouge,LA,70816,East Baton Rouge,-91.016858,30.419869
10514 Quimby Dr,Port Richey,FL,34668,Pasco,-82.667277,28.310509
602 Pleasants Dr,Fredericksburg,VA,22407,Fredericksburg,-77.518563,38.22809
1120 S Wright Blvd,Liberty Lake,WA,99019,Spokane County,-117.093787,47.645955
Seminole Dr,Mountain City,TN,37683,Johnson,-81.771995,36.469116
621 E 94th St,Odessa,TX,79765,Ector,-102.395909,31.949365
1624 S Bardo St,Visalia,CA,93277,Tulare,-119.293279,36.316034
1490 45th Ave,San Francisco,CA,94122,San Francisco,-122.504495,37.758839
1061H Blanton Mill Rd,Griffin,GA,30224,Spalding,-84.413898,33.224321
245 E 121st St,Chicago,IL,60628,Cook,-87.615993,41.674465
1673 E Bradstock Way,San Tan Valley,AZ,85140,Pinal,-111.547751,33.237107
5521 Castleview Ln,Garland,TX,75044,Dallas,-96.676526,32.966363
5497 Northwest Dr N,Bellingham,WA,98226,Whatcom County,-122.54156,48.840471
30 N Michigan Ave,Chicago,IL,60602,Cook,-87.625005,41.882996
1601 Chester Mill Rd,Silver Spring,MD,20906,Montgomery,-77.036611,39.118098
6415 Bull Valley Rd,Mchenry,IL,60050,McHenry County,-88.323641,42.316179
737 E 24th St,Los Angeles,CA,90011,Los Angeles,-118.259578,34.022968
1024 Wyoming Ave,Fort Lauderdale,FL,33312,Broward,-80.197349,26.1096
6401 Skycrest Dr,Austin,TX,78745,Travis,-97.781011,30.197264
63 Catherine St,Trumbull,CT,6611,Fairfield County,-73.224038,41.259363
709 10th St S,Northwood,IA,50459,Worth,-93.218654,43.437961
1206 York Rd,Lutherville Timonium,MD,21093,Baltimore,-76.614929,39.416237
11059 Landsbury Cir,Houston,TX,77099,Harris,-95.574293,29.660084
5530 Arnold Palmer Dr,Orlando,FL,32811,Orange,-81.455854,28.51056
4745 Nw 32nd Ave,Miami,FL,33142,Miami-Dade,-80.248433,25.817594
2637 Ne M L King Blvd,Portland,OR,97212,Multnomah,-122.661751,45.541491
1521 N Hastings St,Orlando,FL,32808,Orange,-81.459135,28.560965
15 Chippewa Rd,Toms River,NJ,8753,Ocean,-74.169227,39.983332
44422 Sunset Maple Dr,Ashburn,VA,20147,Loudoun,-77.462957,39.047114
11009 W Lincoln St,Avondale,AZ,85323,Maricopa,-112.296009,33.440608
9200 Ball Rd,Cattaraugus,NY,14719,Cattaraugus,-78.837709,42.409998
385 Hawthorn Hall,East Stroudsburg,PA,18301,Monroe,-75.198445,41.003755
1401 Sw 17th St,Boca Raton,FL,33486,Palm Beach,-80.114077,26.333184
815 1st Ave S,Estherville,IA,51334,Emmet,-94.833272,43.401115
4473 Westview Dr,Copley,OH,44321,Summit,-81.671311,41.124544
4103 Flowerton Rd,Baltimore,MD,21229,Baltimore City,-76.684582,39.298316
1052 S Fresno St,Chandler,AZ,85286,Maricopa,-111.834406,33.290756
1548 E 4500 S,Salt Lake City,UT,84117,Salt Lake,-111.845678,40.674001
17950 N 97th Pl,Scottsdale,AZ,85255,Maricopa,-111.871846,33.648841
1037 Fair Meadow Rd,Memphis,TN,38117,Shelby,-89.912281,35.103338
287 Tara Woods Dr,Riverdale,GA,30274,Clayton,-84.399229,33.566793
PO Box 20190,Houston,TX,77225,Harris,-95.4179,29.6928
1921 E Oak Bend Dr,Draper,UT,84020,Salt Lake,-111.838188,40.477226
6046 12th St NW,Canton,OH,44708,Stark,-81.465506,40.812003
22 Meadow Vista Ct,Saint Peters,MO,63376,Saint Charles,-90.652893,38.77199
115 Sylvan Lake Blvd,Bayville,NJ,8721,Ocean,-74.167473,39.911111
1339 Wilson Ave,Upland,CA,91786,San Bernardino,-117.677031,34.112032
4816 Friendly St,Pace,FL,32571,Santa Rosa,-87.121484,30.605816
2011 Brandt Rd,Vancouver,WA,98661,Clark,-122.629408,45.637294
921 S Val Vista Dr,Mesa,AZ,85204,Maricopa,-111.751247,33.398764
423 Northvalley Dr,San Antonio,TX,78216,Bexar,-98.500228,29.531635
4318 W Jackson Blvd,Chicago,IL,60624,Cook,-87.733691,41.87724
1715 S Kansas Pl,Nampa,ID,83686,Canyon,-116.590689,43.552002
220 Margaret St,Neptune Beach,FL,32266,Duval,-81.394913,30.30936
2412 S Verbena,Mesa,AZ,85209,Maricopa,-111.655129,33.371798
1513 Oregon St,Lake Charles,LA,70607,Calcasieu,-93.19875,30.193468
306 W Main St,Hallsville,TX,75650,Harrison,-94.578608,32.504763
2716 Fenway Ave,Chesapeake,VA,23323,Chesapeake City,-76.34131,36.760659
1 Columbus Pl,New York,NY,10019,New York,-73.985463,40.769346
5500 Sw 109th Street Rd,Ocala,FL,34476,Marion,-82.211654,29.064197
1813 Edinburgh St,Metairie,LA,70001,Jefferson,-90.143424,29.979505
5895 Kingsmont Dr,Fairfield,OH,45014,Butler,-84.533884,39.317403
4882 Wilkie Way NW,Acworth,GA,30102,Cobb,-84.605257,34.071661
345 Vernier Ave,Lafayette,CO,80026,Boulder,-105.107039,39.996515
PO Box 666,Vernon,TX,76385,Wilbarger,-99.2834,34.1544
3900 Nebel St,Stevens Point,WI,54481,Portage County,-89.545927,44.503161
1321 Canterlane Dr,Houston,TX,77047,Harris,-95.401733,29.619911
930 Willow Brook Ave,Denham Springs,LA,70726,Livingston,-90.939542,30.495851
101 Halsey Ave,Reading,PA,19609,Berks,-76.004313,40.319254
3356 Bowman St,Philadelphia,PA,19129,Philadelphia,-75.185959,40.012812
2601 Sunset Blvd,Minneapolis,MN,55416,Hennepin,-93.320263,44.952871
1594 Sunview St,Muskegon,MI,49445,Muskegon,-86.27644599999999,43.281883
400 W St Elmo Rd,Austin,TX,78745,Travis County,-97.770152,30.220968
1319 Elmwood Ave SW,North Canton,OH,44720,Stark,-81.402493,40.863235
